{
  "type": "FeatureCollection",
  "features": [
    {
      "type": "Feature",
      "properties": {
        "norad_id": 28890,
        "name": "BEIJING 1",
        "group": "dmc",
        "lat": 77.48309049628162,
        "lon": 80.85904115562369,
        "alt_km": 666.3605169468801,
        "timestamp": "2025-12-20T05:41:49.684801+00:00",
        "meta_object_name": "BEIJING 1",
        "meta_object_id": "2005-043A",
        "meta_epoch": "2025-12-19T22:45:59.183424",
        "meta_mean_motion": 14.63372898,
        "meta_eccentricity": 0.00156348,
        "meta_inclination": 98.2654,
        "meta_ra_of_asc_node": 121.4726,
        "meta_arg_of_pericenter": 119.894,
        "meta_mean_anomaly": 240.3818,
        "meta_ephemeris_type": 0,
        "meta_classification_type": "U",
        "meta_norad_cat_id": 28890,
        "meta_element_set_no": 999,
        "meta_rev_at_epoch": 7443,
        "meta_bstar": 8.845555e-05,
        "meta_mean_motion_dot": 4.09e-06,
        "meta_mean_motion_ddot": 0,
        "tle_line1": "1 28890U 05043A   25353.94860166  .00000409  00000+0  88456-4 0  9994",
        "tle_line2": "2 28890  98.2654 121.4726 0015634 119.8940 240.3818 14.63372898 74432"
      },
      "geometry": {
        "type": "Point",
        "coordinates": [
          80.85904115562369,
          77.48309049628162
        ]
      }
    },
    {
      "type": "Feature",
      "properties": {
        "norad_id": 33320,
        "name": "HUANJING 1A (HJ-1A)",
        "group": "dmc",
        "lat": -70.95920705625615,
        "lon": 5.154040445386655,
        "alt_km": 624.1628176507284,
        "timestamp": "2025-12-20T05:41:49.684825+00:00",
        "meta_object_name": "HUANJING 1A (HJ-1A)",
        "meta_object_id": "2008-041A",
        "meta_epoch": "2025-12-19T23:32:50.093376",
        "meta_mean_motion": 14.83414116,
        "meta_eccentricity": 0.00196288,
        "meta_inclination": 97.6535,
        "meta_ra_of_asc_node": 341.9772,
        "meta_arg_of_pericenter": 11.3481,
        "meta_mean_anomaly": 348.8172,
        "meta_ephemeris_type": 0,
        "meta_classification_type": "U",
        "meta_norad_cat_id": 33320,
        "meta_element_set_no": 999,
        "meta_rev_at_epoch": 93183,
        "meta_bstar": 0.00010046819,
        "meta_mean_motion_dot": 7.76e-06,
        "meta_mean_motion_ddot": 0,
        "tle_line1": "1 33320U 08041A   25353.98113534  .00000776  00000+0  10047-3 0  9990",
        "tle_line2": "2 33320  97.6535 341.9772 0019628  11.3481 348.8172 14.83414116931835"
      },
      "geometry": {
        "type": "Point",
        "coordinates": [
          5.154040445386655,
          -70.95920705625615
        ]
      }
    },
    {
      "type": "Feature",
      "properties": {
        "norad_id": 33321,
        "name": "HUANJING 1B (HJ-1B)",
        "group": "dmc",
        "lat": 45.62218281474118,
        "lon": 173.7840485988234,
        "alt_km": 612.5255770534559,
        "timestamp": "2025-12-20T05:41:49.684840+00:00",
        "meta_object_name": "HUANJING 1B (HJ-1B)",
        "meta_object_id": "2008-041B",
        "meta_epoch": "2025-12-19T22:37:16.821120",
        "meta_mean_motion": 14.82839799,
        "meta_eccentricity": 0.00379852,
        "meta_inclination": 97.6395,
        "meta_ra_of_asc_node": 345.6183,
        "meta_arg_of_pericenter": 53.019,
        "meta_mean_anomaly": 307.4492,
        "meta_ephemeris_type": 0,
        "meta_classification_type": "U",
        "meta_norad_cat_id": 33321,
        "meta_element_set_no": 999,
        "meta_rev_at_epoch": 93184,
        "meta_bstar": 0.00015884085,
        "meta_mean_motion_dot": 1.25e-05,
        "meta_mean_motion_ddot": 0,
        "tle_line1": "1 33321U 08041B   25353.94255580  .00001250  00000+0  15884-3 0  9997",
        "tle_line2": "2 33321  97.6395 345.6183 0037985  53.0190 307.4492 14.82839799931847"
      },
      "geometry": {
        "type": "Point",
        "coordinates": [
          173.7840485988234,
          45.62218281474118
        ]
      }
    },
    {
      "type": "Feature",
      "properties": {
        "norad_id": 33446,
        "name": "YAOGAN-4",
        "group": "dmc",
        "lat": 41.01505843403813,
        "lon": -82.69031062718865,
        "alt_km": 619.8446039368391,
        "timestamp": "2025-12-20T05:41:49.684853+00:00",
        "meta_object_name": "YAOGAN-4",
        "meta_object_id": "2008-061A",
        "meta_epoch": "2025-12-19T10:04:29.303904",
        "meta_mean_motion": 14.8270055,
        "meta_eccentricity": 0.0013167,
        "meta_inclination": 97.919,
        "meta_ra_of_asc_node": 283.4536,
        "meta_arg_of_pericenter": 299.8838,
        "meta_mean_anomaly": 60.1067,
        "meta_ephemeris_type": 0,
        "meta_classification_type": "U",
        "meta_norad_cat_id": 33446,
        "meta_element_set_no": 999,
        "meta_rev_at_epoch": 91902,
        "meta_bstar": 0.00012167,
        "meta_mean_motion_dot": 9.29e-06,
        "meta_mean_motion_ddot": 0,
        "tle_line1": "1 33446U 08061A   25353.41978361  .00000929  00000+0  12167-3 0  9991",
        "tle_line2": "2 33446  97.9190 283.4536 0013167 299.8838  60.1067 14.82700550919026"
      },
      "geometry": {
        "type": "Point",
        "coordinates": [
          -82.69031062718865,
          41.01505843403813
        ]
      }
    },
    {
      "type": "Feature",
      "properties": {
        "norad_id": 35681,
        "name": "DEIMOS-1",
        "group": "dmc",
        "lat": -37.08794522320072,
        "lon": 160.37239351992795,
        "alt_km": 652.1054869162863,
        "timestamp": "2025-12-20T05:41:49.684865+00:00",
        "meta_object_name": "DEIMOS-1",
        "meta_object_id": "2009-041A",
        "meta_epoch": "2025-12-19T23:21:14.931936",
        "meta_mean_motion": 14.74964433,
        "meta_eccentricity": 0.00026178,
        "meta_inclination": 97.7141,
        "meta_ra_of_asc_node": 154.2392,
        "meta_arg_of_pericenter": 67.5886,
        "meta_mean_anomaly": 292.5601,
        "meta_ephemeris_type": 0,
        "meta_classification_type": "U",
        "meta_norad_cat_id": 35681,
        "meta_element_set_no": 999,
        "meta_rev_at_epoch": 88046,
        "meta_bstar": 0.00012453759,
        "meta_mean_motion_dot": 7.9e-06,
        "meta_mean_motion_ddot": 0,
        "tle_line1": "1 35681U 09041A   25353.97308949  .00000790  00000+0  12454-3 0  9998",
        "tle_line2": "2 35681  97.7141 154.2392 0002617  67.5886 292.5601 14.74964433880462"
      },
      "geometry": {
        "type": "Point",
        "coordinates": [
          160.37239351992795,
          -37.08794522320072
        ]
      }
    },
    {
      "type": "Feature",
      "properties": {
        "norad_id": 35683,
        "name": "UK-DMC 2",
        "group": "dmc",
        "lat": -4.1944870631279025,
        "lon": 129.50850202011912,
        "alt_km": 646.7932581881805,
        "timestamp": "2025-12-20T05:41:49.684876+00:00",
        "meta_object_name": "UK-DMC 2",
        "meta_object_id": "2009-041C",
        "meta_epoch": "2025-12-19T23:12:23.977152",
        "meta_mean_motion": 14.75637696,
        "meta_eccentricity": 0.00015069,
        "meta_inclination": 97.856,
        "meta_ra_of_asc_node": 128.6656,
        "meta_arg_of_pericenter": 93.2862,
        "meta_mean_anomaly": 266.852,
        "meta_ephemeris_type": 0,
        "meta_classification_type": "U",
        "meta_norad_cat_id": 35683,
        "meta_element_set_no": 999,
        "meta_rev_at_epoch": 88013,
        "meta_bstar": 0.00016080471,
        "meta_mean_motion_dot": 1.049e-05,
        "meta_mean_motion_ddot": 0,
        "tle_line1": "1 35683U 09041C   25353.96694418  .00001049  00000+0  16080-3 0  9995",
        "tle_line2": "2 35683  97.8560 128.6656 0001506  93.2862 266.8520 14.75637696880131"
      },
      "geometry": {
        "type": "Point",
        "coordinates": [
          129.50850202011912,
          -4.1944870631279025
        ]
      }
    },
    {
      "type": "Feature",
      "properties": {
        "norad_id": 40715,
        "name": "DMC3-FM1",
        "group": "dmc",
        "lat": -50.10725689333417,
        "lon": -129.56741310587748,
        "alt_km": 616.2717206470688,
        "timestamp": "2025-12-20T05:41:49.684887+00:00",
        "meta_object_name": "DMC3-FM1",
        "meta_object_id": "2015-032A",
        "meta_epoch": "2025-12-19T21:50:29.965056",
        "meta_mean_motion": 14.85450238,
        "meta_eccentricity": 0.00042593,
        "meta_inclination": 97.6691,
        "meta_ra_of_asc_node": 220.8409,
        "meta_arg_of_pericenter": 292.121,
        "meta_mean_anomaly": 67.9553,
        "meta_ephemeris_type": 0,
        "meta_classification_type": "U",
        "meta_norad_cat_id": 40715,
        "meta_element_set_no": 999,
        "meta_rev_at_epoch": 56329,
        "meta_bstar": 4.118262e-05,
        "meta_mean_motion_dot": 3.04e-06,
        "meta_mean_motion_ddot": 0,
        "tle_line1": "1 40715U 15032A   25353.91006904  .00000304  00000+0  41183-4 0  9992",
        "tle_line2": "2 40715  97.6691 220.8409 0004259 292.1210  67.9553 14.85450238563299"
      },
      "geometry": {
        "type": "Point",
        "coordinates": [
          -129.56741310587748,
          -50.10725689333417
        ]
      }
    },
    {
      "type": "Feature",
      "properties": {
        "norad_id": 40716,
        "name": "DMC3-FM2",
        "group": "dmc",
        "lat": -9.148671950825054,
        "lon": 41.361039263431024,
        "alt_km": 617.3381690539718,
        "timestamp": "2025-12-20T05:41:49.684897+00:00",
        "meta_object_name": "DMC3-FM2",
        "meta_object_id": "2015-032B",
        "meta_epoch": "2025-12-19T22:22:52.833216",
        "meta_mean_motion": 14.85454416,
        "meta_eccentricity": 0.00047537,
        "meta_inclination": 97.675,
        "meta_ra_of_asc_node": 222.3116,
        "meta_arg_of_pericenter": 298.2778,
        "meta_mean_anomaly": 61.7958,
        "meta_ephemeris_type": 0,
        "meta_classification_type": "U",
        "meta_norad_cat_id": 40716,
        "meta_element_set_no": 999,
        "meta_rev_at_epoch": 56329,
        "meta_bstar": 0.00012217307,
        "meta_mean_motion_dot": 1.002e-05,
        "meta_mean_motion_ddot": 0,
        "tle_line1": "1 40716U 15032B   25353.93255594  .00001002  00000+0  12217-3 0  9997",
        "tle_line2": "2 40716  97.6750 222.3116 0004753 298.2778  61.7958 14.85454416563296"
      },
      "geometry": {
        "type": "Point",
        "coordinates": [
          41.361039263431024,
          -9.148671950825054
        ]
      }
    },
    {
      "type": "Feature",
      "properties": {
        "norad_id": 40717,
        "name": "DMC3-FM3",
        "group": "dmc",
        "lat": 71.64279097852784,
        "lon": -159.75402762802932,
        "alt_km": 607.2691718468959,
        "timestamp": "2025-12-20T05:41:49.684908+00:00",
        "meta_object_name": "DMC3-FM3",
        "meta_object_id": "2015-032C",
        "meta_epoch": "2025-12-19T21:17:06.208224",
        "meta_mean_motion": 14.85442124,
        "meta_eccentricity": 0.00040937,
        "meta_inclination": 97.6807,
        "meta_ra_of_asc_node": 223.9055,
        "meta_arg_of_pericenter": 300.904,
        "meta_mean_anomaly": 59.1772,
        "meta_ephemeris_type": 0,
        "meta_classification_type": "U",
        "meta_norad_cat_id": 40717,
        "meta_element_set_no": 999,
        "meta_rev_at_epoch": 56329,
        "meta_bstar": 0.00010614357,
        "meta_mean_motion_dot": 8.63e-06,
        "meta_mean_motion_ddot": 0,
        "tle_line1": "1 40717U 15032C   25353.88687741  .00000863  00000+0  10614-3 0  9998",
        "tle_line2": "2 40717  97.6807 223.9055 0004093 300.9040  59.1772 14.85442124563297"
      },
      "geometry": {
        "type": "Point",
        "coordinates": [
          -159.75402762802932,
          71.64279097852784
        ]
      }
    }
  ]
}